[
  {
    "OBJECT_NAME": "STARLINK-30592",
    "OBJECT_ID": "23161F",
    "EPOCH": "2025-11-11T06:34:05.368800",
    "MEAN_MOTION": 15.30198489,
    "ECCENTRICITY": 0.0001247,
    "INCLINATION": 53.1604,
    "RA_OF_ASC_NODE": 355.4203,
    "ARG_OF_PERICENTER": 65.2252,
    "MEAN_ANOMALY": 294.8878,
    "EPHEMERIS_TYPE": 0,
    "CLASSIFICATION_TYPE": "U",
    "NORAD_CAT_ID": 58102,
    "ELEMENT_SET_NO": 999,
    "REV_AT_EPOCH": 11629,
    "BSTAR": 0.00026898,
    "MEAN_MOTION_DOT": 7.615e-05,
    "MEAN_MOTION_DDOT": 0.0,
    "TLE_LINE1": "1 58102U 23161F   25315.27367325  .00007615  00000+0  26898-3 0  9994",
    "TLE_LINE2": "2 58102  53.1604 355.4203 0001247  65.2252 294.8878 15.30198489116298",
    "COMMENT": "Grouped by shell and plane from TLE"
  },
  {
    "OBJECT_NAME": "STARLINK-30589",
    "OBJECT_ID": "23161G",
    "EPOCH": "2025-11-11T07:31:47.275968",
    "MEAN_MOTION": 15.30202268,
    "ECCENTRICITY": 0.0001398,
    "INCLINATION": 53.1614,
    "RA_OF_ASC_NODE": 355.4697,
    "ARG_OF_PERICENTER": 87.9076,
    "MEAN_ANOMALY": 272.2085,
    "EPHEMERIS_TYPE": 0,
    "CLASSIFICATION_TYPE": "U",
    "NORAD_CAT_ID": 58103,
    "ELEMENT_SET_NO": 999,
    "REV_AT_EPOCH": 11629,
    "BSTAR": 0.00016780999999999998,
    "MEAN_MOTION_DOT": 4.614e-05,
    "MEAN_MOTION_DDOT": 0.0,
    "TLE_LINE1": "1 58103U 23161G   25315.31374162  .00004614  00000+0  16781-3 0  9993",
    "TLE_LINE2": "2 58103  53.1614 355.4697 0001398  87.9076 272.2085 15.30202268116290",
    "COMMENT": "Grouped by shell and plane from TLE"
  },
  {
    "OBJECT_NAME": "STARLINK-30617",
    "OBJECT_ID": "23161H",
    "EPOCH": "2025-11-11T02:54:11.312928",
    "MEAN_MOTION": 15.30206504,
    "ECCENTRICITY": 0.0001584,
    "INCLINATION": 53.1608,
    "RA_OF_ASC_NODE": 356.4015,
    "ARG_OF_PERICENTER": 92.7724,
    "MEAN_ANOMALY": 267.3458,
    "EPHEMERIS_TYPE": 0,
    "CLASSIFICATION_TYPE": "U",
    "NORAD_CAT_ID": 58104,
    "ELEMENT_SET_NO": 999,
    "REV_AT_EPOCH": 11626,
    "BSTAR": 0.00031794,
    "MEAN_MOTION_DOT": 9.071e-05,
    "MEAN_MOTION_DDOT": 0.0,
    "TLE_LINE1": "1 58104U 23161H   25315.12096427  .00009071  00000+0  31794-3 0  9991",
    "TLE_LINE2": "2 58104  53.1608 356.4015 0001584  92.7724 267.3458 15.30206504116263",
    "COMMENT": "Grouped by shell and plane from TLE"
  },
  {
    "OBJECT_NAME": "STARLINK-30606",
    "OBJECT_ID": "23161N",
    "EPOCH": "2025-11-11T06:53:50.889984",
    "MEAN_MOTION": 15.30184503,
    "ECCENTRICITY": 8.74e-05,
    "INCLINATION": 53.1604,
    "RA_OF_ASC_NODE": 355.5056,
    "ARG_OF_PERICENTER": 80.5567,
    "MEAN_ANOMALY": 279.5533,
    "EPHEMERIS_TYPE": 0,
    "CLASSIFICATION_TYPE": "U",
    "NORAD_CAT_ID": 58109,
    "ELEMENT_SET_NO": 999,
    "REV_AT_EPOCH": 11629,
    "BSTAR": 6.0586e-05,
    "MEAN_MOTION_DOT": 1.435e-05,
    "MEAN_MOTION_DDOT": 0.0,
    "TLE_LINE1": "1 58109U 23161N   25315.28739456  .00001435  00000+0  60586-4 0  9997",
    "TLE_LINE2": "2 58109  53.1604 355.5056 0000874  80.5567 279.5533 15.30184503116296",
    "COMMENT": "Grouped by shell and plane from TLE"
  },
  {
    "OBJECT_NAME": "STARLINK-30596",
    "OBJECT_ID": "23161P",
    "EPOCH": "2025-11-11T06:20:25.004256",
    "MEAN_MOTION": 15.30182636,
    "ECCENTRICITY": 0.0001095,
    "INCLINATION": 53.1613,
    "RA_OF_ASC_NODE": 355.3584,
    "ARG_OF_PERICENTER": 42.4211,
    "MEAN_ANOMALY": 317.6874,
    "EPHEMERIS_TYPE": 0,
    "CLASSIFICATION_TYPE": "U",
    "NORAD_CAT_ID": 58110,
    "ELEMENT_SET_NO": 999,
    "REV_AT_EPOCH": 11629,
    "BSTAR": 0.0,
    "MEAN_MOTION_DOT": -7.28e-06,
    "MEAN_MOTION_DDOT": 0.0,
    "TLE_LINE1": "1 58110U 23161P   25315.26417829 -.00000728  00000+0 -12464-4 0  9992",
    "TLE_LINE2": "2 58110  53.1613 355.3584 0001095  42.4211 317.6874 15.30182636116298",
    "COMMENT": "Grouped by shell and plane from TLE"
  },
  {
    "OBJECT_NAME": "STARLINK-30595",
    "OBJECT_ID": "23161Q",
    "EPOCH": "2025-11-11T07:12:04.572288",
    "MEAN_MOTION": 15.30229597,
    "ECCENTRICITY": 0.0001125,
    "INCLINATION": 53.1622,
    "RA_OF_ASC_NODE": 355.5859,
    "ARG_OF_PERICENTER": 84.8383,
    "MEAN_ANOMALY": 275.2746,
    "EPHEMERIS_TYPE": 0,
    "CLASSIFICATION_TYPE": "U",
    "NORAD_CAT_ID": 58111,
    "ELEMENT_SET_NO": 999,
    "REV_AT_EPOCH": 11629,
    "BSTAR": 0.00060202,
    "MEAN_MOTION_DOT": 0.00017529,
    "MEAN_MOTION_DDOT": 0.0,
    "TLE_LINE1": "1 58111U 23161Q   25315.30005292  .00017529  00000+0  60202-3 0  9992",
    "TLE_LINE2": "2 58111  53.1622 355.5859 0001125  84.8383 275.2746 15.30229597116295",
    "COMMENT": "Grouped by shell and plane from TLE"
  },
  {
    "OBJECT_NAME": "STARLINK-30593",
    "OBJECT_ID": "23161R",
    "EPOCH": "2025-11-11T07:07:31.787616",
    "MEAN_MOTION": 15.30187632,
    "ECCENTRICITY": 0.0001316,
    "INCLINATION": 53.1627,
    "RA_OF_ASC_NODE": 355.563,
    "ARG_OF_PERICENTER": 82.0613,
    "MEAN_ANOMALY": 278.0537,
    "EPHEMERIS_TYPE": 0,
    "CLASSIFICATION_TYPE": "U",
    "NORAD_CAT_ID": 58112,
    "ELEMENT_SET_NO": 999,
    "REV_AT_EPOCH": 11629,
    "BSTAR": 0.0,
    "MEAN_MOTION_DOT": -3.073e-05,
    "MEAN_MOTION_DDOT": 0.0,
    "TLE_LINE1": "1 58112U 23161R   25315.29689569 -.00003073  00000+0 -91701-4 0  9996",
    "TLE_LINE2": "2 58112  53.1627 355.5630 0001316  82.0613 278.0537 15.30187632116298",
    "COMMENT": "Grouped by shell and plane from TLE"
  },
  {
    "OBJECT_NAME": "STARLINK-30353",
    "OBJECT_ID": "23161S",
    "EPOCH": "2025-11-11T07:21:11.663136",
    "MEAN_MOTION": 15.30205025,
    "ECCENTRICITY": 0.0001452,
    "INCLINATION": 53.1618,
    "RA_OF_ASC_NODE": 355.6191,
    "ARG_OF_PERICENTER": 88.4241,
    "MEAN_ANOMALY": 271.6926,
    "EPHEMERIS_TYPE": 0,
    "CLASSIFICATION_TYPE": "U",
    "NORAD_CAT_ID": 58113,
    "ELEMENT_SET_NO": 999,
    "REV_AT_EPOCH": 11629,
    "BSTAR": 0.00018431,
    "MEAN_MOTION_DOT": 5.104e-05,
    "MEAN_MOTION_DDOT": 0.0,
    "TLE_LINE1": "1 58113U 23161S   25315.30638499  .00005104  00000+0  18431-3 0  9998",
    "TLE_LINE2": "2 58113  53.1618 355.6191 0001452  88.4241 271.6926 15.30205025116298",
    "COMMENT": "Grouped by shell and plane from TLE"
  },
  {
    "OBJECT_NAME": "STARLINK-30572",
    "OBJECT_ID": "23161T",
    "EPOCH": "2025-11-11T07:02:58.361856",
    "MEAN_MOTION": 15.30185284,
    "ECCENTRICITY": 0.0001416,
    "INCLINATION": 53.1628,
    "RA_OF_ASC_NODE": 355.5403,
    "ARG_OF_PERICENTER": 87.394,
    "MEAN_ANOMALY": 272.7223,
    "EPHEMERIS_TYPE": 0,
    "CLASSIFICATION_TYPE": "U",
    "NORAD_CAT_ID": 58114,
    "ELEMENT_SET_NO": 999,
    "REV_AT_EPOCH": 11629,
    "BSTAR": 0.0,
    "MEAN_MOTION_DOT": -7.37e-06,
    "MEAN_MOTION_DDOT": 0.0,
    "TLE_LINE1": "1 58114U 23161T   25315.29373104 -.00000737  00000+0 -12749-4 0  9992",
    "TLE_LINE2": "2 58114  53.1628 355.5403 0001416  87.3940 272.7223 15.30185284116295",
    "COMMENT": "Grouped by shell and plane from TLE"
  },
  {
    "OBJECT_NAME": "STARLINK-30580",
    "OBJECT_ID": "23161U",
    "EPOCH": "2025-11-11T06:24:58.795488",
    "MEAN_MOTION": 15.30209581,
    "ECCENTRICITY": 0.000125,
    "INCLINATION": 53.1588,
    "RA_OF_ASC_NODE": 355.3594,
    "ARG_OF_PERICENTER": 97.1493,
    "MEAN_ANOMALY": 262.965,
    "EPHEMERIS_TYPE": 0,
    "CLASSIFICATION_TYPE": "U",
    "NORAD_CAT_ID": 58115,
    "ELEMENT_SET_NO": 999,
    "REV_AT_EPOCH": 11629,
    "BSTAR": 0.0005808600000000001,
    "MEAN_MOTION_DOT": 0.00016888,
    "MEAN_MOTION_DDOT": 0.0,
    "TLE_LINE1": "1 58115U 23161U   25315.26734717  .00016888  00000+0  58086-3 0  9996",
    "TLE_LINE2": "2 58115  53.1588 355.3594 0001250  97.1493 262.9650 15.30209581116290",
    "COMMENT": "Grouped by shell and plane from TLE"
  },
  {
    "OBJECT_NAME": "STARLINK-30493",
    "OBJECT_ID": "23161V",
    "EPOCH": "2025-11-11T07:16:38.096544",
    "MEAN_MOTION": 15.30188759,
    "ECCENTRICITY": 0.0001485,
    "INCLINATION": 53.1623,
    "RA_OF_ASC_NODE": 355.6023,
    "ARG_OF_PERICENTER": 90.6473,
    "MEAN_ANOMALY": 269.4698,
    "EPHEMERIS_TYPE": 0,
    "CLASSIFICATION_TYPE": "U",
    "NORAD_CAT_ID": 58116,
    "ELEMENT_SET_NO": 999,
    "REV_AT_EPOCH": 11629,
    "BSTAR": 0.0,
    "MEAN_MOTION_DOT": -1.902e-05,
    "MEAN_MOTION_DDOT": 0.0,
    "TLE_LINE1": "1 58116U 23161V   25315.30321871 -.00001902  00000+0 -52107-4 0  9997",
    "TLE_LINE2": "2 58116  53.1623 355.6023 0001485  90.6473 269.4698 15.30188759116294",
    "COMMENT": "Grouped by shell and plane from TLE"
  },
  {
    "OBJECT_NAME": "STARLINK-30601",
    "OBJECT_ID": "23161W",
    "EPOCH": "2025-11-11T07:25:45.047424",
    "MEAN_MOTION": 15.30207803,
    "ECCENTRICITY": 0.0001297,
    "INCLINATION": 53.1614,
    "RA_OF_ASC_NODE": 355.6382,
    "ARG_OF_PERICENTER": 83.9862,
    "MEAN_ANOMALY": 276.1286,
    "EPHEMERIS_TYPE": 0,
    "CLASSIFICATION_TYPE": "U",
    "NORAD_CAT_ID": 58117,
    "ELEMENT_SET_NO": 999,
    "REV_AT_EPOCH": 11629,
    "BSTAR": 0.00026655,
    "MEAN_MOTION_DOT": 7.545e-05,
    "MEAN_MOTION_DDOT": 0.0,
    "TLE_LINE1": "1 58117U 23161W   25315.30954916  .00007545  00000+0  26655-3 0  9995",
    "TLE_LINE2": "2 58117  53.1614 355.6382 0001297  83.9862 276.1286 15.30207803116291",
    "COMMENT": "Grouped by shell and plane from TLE"
  },
  {
    "OBJECT_NAME": "STARLINK-31630",
    "OBJECT_ID": "24050T",
    "EPOCH": "2025-11-11T06:29:00.159936",
    "MEAN_MOTION": 15.30238624,
    "ECCENTRICITY": 0.0001672,
    "INCLINATION": 53.1614,
    "RA_OF_ASC_NODE": 358.551,
    "ARG_OF_PERICENTER": 59.845,
    "MEAN_ANOMALY": 300.2717,
    "EPHEMERIS_TYPE": 0,
    "CLASSIFICATION_TYPE": "U",
    "NORAD_CAT_ID": 59271,
    "ELEMENT_SET_NO": 999,
    "REV_AT_EPOCH": 9259,
    "BSTAR": 0.0,
    "MEAN_MOTION_DOT": -1.234e-05,
    "MEAN_MOTION_DDOT": 0.0,
    "TLE_LINE1": "1 59271U 24050T   25315.27014074 -.00001234  00000+0 -29496-4 0  9991",
    "TLE_LINE2": "2 59271  53.1614 358.5510 0001672  59.8450 300.2717 15.30238624 92599",
    "COMMENT": "Grouped by shell and plane from TLE"
  }
]